NORAD_CAT_ID,OBJECT_NAME,OBJECT_TYPE,EPOCH,MEAN_MOTION,ECCENTRICITY,INCLINATION,RA_OF_ASC_NODE,ARG_OF_PERICENTER,MEAN_ANOMALY,BSTAR,MEAN_MOTION_DOT,MEAN_MOTION_DDOT,TLE_LINE0,TLE_LINE1,TLE_LINE2,SEMIMAJOR_AXIS,PERIOD,APOGEE,PERIGEE,DECAYED
53841.0,STARLINK-4750,PAYLOAD,2024-01-22 17:15:31,15.08836059,0.0001548,53.2172,182.2085,93.3929,266.7241,1.1674e-05,-1.02e-06,0.0,0 STARLINK-4750,1 53841U 22114Z   24022.71911932 -.00000102  00000-0  11674-4 0  9991,2 53841  53.2172 182.2085 0001548  93.3929 266.7241 15.08836059 75670,6917.892,95.438,540.828,538.687,0.0
53841.0,STARLINK-4750,PAYLOAD,2024-01-23 15:30:55,15.08842087,0.000156,53.2177,178.0449,104.4081,255.7084,4.2948e-05,3.96e-06,0.0,0 STARLINK-4750,1 53841U 22114Z   24023.64647450  .00000396  00000-0  42948-4 0  9997,2 53841  53.2177 178.0449 0001560 104.4081 255.7084 15.08842087 75276,6917.874,95.437,540.818,538.66,0.0
53841.0,STARLINK-4750,PAYLOAD,2024-01-23 17:06:18,15.08843201,0.0001588,53.2179,177.7477,105.0939,255.0229,5.2153e-05,5.42e-06,0.0,0 STARLINK-4750,1 53841U 22114Z   24023.71271290  .00000542  00000-0  52153-4 0  9992,2 53841  53.2179 177.7477 0001588 105.0939 255.0229 15.08843201 75828,6917.871,95.437,540.834,538.637,0.0
53841.0,STARLINK-4750,PAYLOAD,2024-01-24 13:46:19,15.08834128,0.0001464,53.217,173.8778,110.8336,249.2813,6.5556e-07,-2.78e-06,0.0,0 STARLINK-4750,1 53841U 22114Z   24024.57384251 -.00000278  00000-0  65556-6 0  9999,2 53841  53.2170 173.8778 0001464 110.8336 249.2813 15.08834128 75954,6917.898,95.438,540.776,538.751,0.0
53841.0,STARLINK-4750,PAYLOAD,2024-01-24 15:21:43,15.08834413,0.0001488,53.2175,173.5808,112.3234,247.7916,4.0868e-06,-2.23e-06,0.0,0 STARLINK-4750,1 53841U 22114Z   24024.64008242 -.00000223  00000-0  40868-5 0  9998,2 53841  53.2175 173.5808 0001488 112.3234 247.7916 15.08834413 75426,6917.897,95.438,540.792,538.733,0.0
53841.0,STARLINK-4750,PAYLOAD,2024-01-25 13:37:07,15.08834312,0.0001745,53.218,169.4211,124.0538,236.062,-2.5865e-05,-7e-06,0.0,0 STARLINK-4750,1 53841U 22114Z   24025.56744704 -.00000700  00000-0 -25865-4 0  9990,2 53841  53.2180 169.4211 0001745 124.0538 236.0620 15.08834312 76104,6917.898,95.438,540.97,538.556,0.0
53841.0,STARLINK-4750,PAYLOAD,2024-01-25 16:47:53,15.0881592,0.0001443,53.2172,168.8218,95.4808,264.6349,0.00026701,3.961e-05,0.0,0 STARLINK-4750,1 53841U 22114Z   24025.69992951  .00003961  00000-0  26701-3 0  9992,2 53841  53.2172 168.8218 0001443  95.4808 264.6349 15.08815920 75581,6917.954,95.439,540.817,538.821,0.0
53841.0,STARLINK-4750,PAYLOAD,2024-01-26 13:27:54,15.08837094,0.0001239,53.2166,164.9577,72.9272,287.1856,0.0001028,1.348e-05,0.0,0 STARLINK-4750,1 53841U 22114Z   24026.56104563  .00001348  00000-0  10280-3 0  9995,2 53841  53.2166 164.9577 0001239  72.9272 287.1856 15.08837094 76251,6917.889,95.438,540.611,538.897,0.0
53841.0,STARLINK-4750,PAYLOAD,2024-01-26 18:14:03,15.08843533,0.000131,53.2171,164.0679,78.1982,281.9157,0.00015355,2.157e-05,0.0,0 STARLINK-4750,1 53841U 22114Z   24026.75976076  .00002157  00000-0  15355-3 0  9999,2 53841  53.2171 164.0679 0001310  78.1982 281.9157 15.08843533 75741,6917.87,95.437,540.641,538.828,0.0
53841.0,STARLINK-4750,PAYLOAD,2024-01-27 13:18:41,15.08838708,0.0001428,53.2169,160.5029,71.4566,288.6582,5.2156e-05,5.42e-06,0.0,0 STARLINK-4750,1 53841U 22114Z   24027.55464904  .00000542  00000-0  52156-4 0  9997,2 53841  53.2169 160.5029 0001428  71.4566 288.6582 15.08838708 75869,6917.884,95.438,540.737,538.761,0.0
53841.0,STARLINK-4750,PAYLOAD,2024-01-27 18:04:50,15.08847763,0.0001183,53.2164,159.6076,91.7286,268.3842,0.00010021,1.308e-05,0.0,0 STARLINK-4750,1 53841U 22114Z   24027.75335974  .00001308  00000-0  10021-3 0  9998,2 53841  53.2164 159.6076 0001183  91.7286 268.3842 15.08847763 75895,6917.857,95.437,540.54,538.903,0.0
53841.0,STARLINK-4750,PAYLOAD,2024-01-28 08:23:19,15.08838858,0.0001445,53.2176,156.9326,79.8242,280.2913,-9.774e-05,-1.843e-05,0.0,0 STARLINK-4750,1 53841U 22114Z   24028.34953427 -.00001843  00000-0 -97740-4 0  9993,2 53841  53.2176 156.9326 0001445  79.8242 280.2913 15.08838858 75983,6917.884,95.438,540.749,538.749,0.0
53841.0,STARLINK-4750,PAYLOAD,2024-01-28 14:44:52,15.08840326,0.0001485,53.2172,155.7422,90.0684,270.0479,-8.1498e-05,-1.585e-05,0.0,0 STARLINK-4750,1 53841U 22114Z   24028.61449205 -.00001585  00000-0 -81498-4 0  9993,2 53841  53.2172 155.7422 0001485  90.0684 270.0479 15.08840326 76564,6917.879,95.438,540.772,538.717,0.0
53841.0,STARLINK-4750,PAYLOAD,2024-01-29 11:24:52,15.08846655,0.0001296,53.2165,151.8769,83.7284,276.3856,6.208e-05,7e-06,0.0,0 STARLINK-4750,1 53841U 22114Z   24029.47560382  .00000700  00000-0  62080-4 0  9990,2 53841  53.2165 151.8769 0001296  83.7284 276.3856 15.08846655 76156,6917.86,95.437,540.622,538.828,0.0
53841.0,STARLINK-4750,PAYLOAD,2024-01-30 11:15:39,15.08835831,0.0001185,53.2156,147.4153,83.4723,276.6404,3.6148e-05,2.87e-06,0.0,0 STARLINK-4750,1 53841U 22114Z   24030.46921162  .00000287  00000-0  36148-4 0  9994,2 53841  53.2156 147.4153 0001185  83.4723 276.6404 15.08835831 76309,6917.893,95.438,540.578,538.938,0.0
53841.0,STARLINK-4750,PAYLOAD,2024-01-30 14:26:26,15.08836482,0.0001229,53.2164,146.821,86.4873,273.6259,4.0752e-05,3.61e-06,0.0,0 STARLINK-4750,1 53841U 22114Z   24030.60169136  .00000361  00000-0  40752-4 0  9994,2 53841  53.2164 146.8210 0001229  86.4873 273.6259 15.08836482 76862,6917.891,95.438,540.606,538.906,0.0
53841.0,STARLINK-4750,PAYLOAD,2024-01-31 11:06:27,15.08838168,0.0001299,53.2171,142.9574,89.7373,270.3768,-7.9492e-06,-4.14e-06,0.0,0 STARLINK-4750,1 53841U 22114Z   24031.46281296 -.00000414  00000-0 -79492-5 0  9996,2 53841  53.2171 142.9574 0001299  89.7373 270.3768 15.08838168 76994,6917.886,95.438,540.65,538.852,0.0
53841.0,STARLINK-4750,PAYLOAD,2024-01-31 17:27:59,15.08844784,0.0001357,53.2163,141.765,99.3365,260.778,3.5421e-05,2.76e-06,0.0,0 STARLINK-4750,1 53841U 22114Z   24031.72776641  .00000276  00000-0  35421-4 0  9995,2 53841  53.2163 141.7650 0001357  99.3365 260.7780 15.08844784 76493,6917.866,95.437,540.67,538.792,0.0
53841.0,STARLINK-4750,PAYLOAD,2024-02-01 10:57:15,15.08826409,0.0001741,53.2159,138.4852,120.1678,239.9487,-7.4957e-05,-1.48e-05,0.0,0 STARLINK-4750,1 53841U 22114Z   24032.45642528 -.00001480  00000-0 -74957-4 0  9999,2 53841  53.2159 138.4852 0001741 120.1678 239.9487 15.08826409 76601,6917.922,95.438,540.991,538.583,0.0
53841.0,STARLINK-4750,PAYLOAD,2024-02-01 12:32:38,15.0881957,0.0001351,53.2175,138.1983,86.5783,273.5363,-7.278e-05,-1.445e-05,0.0,0 STARLINK-4750,1 53841U 22114Z   24032.52267229 -.00001445  00000-0 -72780-4 0  9991,2 53841  53.2175 138.1983 0001351  86.5783 273.5363 15.08819570 77159,6917.943,95.439,540.742,538.873,0.0
53841.0,STARLINK-4750,PAYLOAD,2024-02-01 15:43:25,15.08818103,0.0001269,53.2166,137.601,86.505,273.6087,-9.739e-05,-1.837e-05,0.0,0 STARLINK-4750,1 53841U 22114Z   24032.65515521 -.00001837  00000-0 -97390-4 0  9995,2 53841  53.2166 137.6010 0001269  86.5050 273.6087 15.08818103 76636,6917.947,95.439,540.69,538.934,0.0
53841.0,STARLINK-4750,PAYLOAD,2024-02-02 12:23:25,15.08835962,0.0001916,53.2177,133.7368,81.8413,278.2797,-8.1619e-06,-4.18e-06,0.0,0 STARLINK-4750,1 53841U 22114Z   24033.51626946 -.00000418  00000-0 -81619-5 0  9997,2 53841  53.2177 133.7368 0001916  81.8413 278.2797 15.08835962 76766,6917.893,95.438,541.083,538.432,0.0
53841.0,STARLINK-4750,PAYLOAD,2024-02-02 13:58:48,15.08838766,0.000175,53.2168,133.4314,114.7378,245.3797,0.00017396,2.482e-05,0.0,0 STARLINK-4750,1 53841U 22114Z   24033.58250000  .00002482  00000-0  17396-3 0  9998,2 53841  53.2168 133.4314 0001750 114.7378 245.3797 15.08838766 77318,6917.884,95.438,540.96,538.539,0.0
53841.0,STARLINK-4750,PAYLOAD,2024-02-02 15:34:11,15.08839399,0.0001921,53.2165,133.1349,124.5851,235.5323,0.00018438,2.647e-05,0.0,0 STARLINK-4750,1 53841U 22114Z   24033.64873867  .00002647  00000-0  18438-3 0  9998,2 53841  53.2165 133.1349 0001921 124.5851 235.5323 15.08839399 76784,6917.882,95.438,541.076,538.418,0.0
53841.0,STARLINK-4750,PAYLOAD,2024-02-03 13:49:34,15.08843038,0.0001587,53.2168,128.9811,75.8922,284.2247,0.0002877,4.294e-05,0.0,0 STARLINK-4750,1 53841U 22114Z   24034.57609707  .00004294  00000-0  28770-3 0  9991,2 53841  53.2168 128.9811 0001587  75.8922 284.2247 15.08843038 77465,6917.871,95.437,540.834,538.638,0.0
53841.0,STARLINK-4750,PAYLOAD,2024-02-04 12:04:59,15.08848977,0.0001368,53.2162,124.8168,88.0946,272.0203,-2.5979e-05,-7.01e-06,0.0,0 STARLINK-4750,1 53841U 22114Z   24035.50346108 -.00000701  00000-0 -25979-4 0  9998,2 53841  53.2162 124.8168 0001368  88.0946 272.0203 15.08848977 77068,6917.853,95.437,540.664,538.772,0.0
53841.0,STARLINK-4750,PAYLOAD,2024-02-04 13:40:22,15.08850458,0.0001567,53.2169,124.5201,79.39,280.7268,-4.103e-07,-2.95e-06,0.0,0 STARLINK-4750,1 53841U 22114Z   24035.56969990 -.00000295  00000-0 -41030-6 0  9990,2 53841  53.2169 124.5201 0001567  79.3900 280.7268 15.08850458 77619,6917.848,95.437,540.797,538.629,0.0
53841.0,STARLINK-4750,PAYLOAD,2024-02-05 11:55:45,15.08852508,0.0001354,53.2166,120.3546,105.9177,254.1964,-7.4314e-05,-1.471e-05,0.0,0 STARLINK-4750,1 53841U 22114Z   24036.49705333 -.00001471  00000-0 -74314-4 0  9998,2 53841  53.2166 120.3546 0001354 105.9177 254.1964 15.08852508 77759,6917.842,95.437,540.644,538.77,0.0
53841.0,STARLINK-4750,PAYLOAD,2024-02-06 11:46:32,15.08843914,0.0001471,53.2171,115.8945,106.5559,253.5595,6.1008e-06,-1.91e-06,0.0,0 STARLINK-4750,1 53841U 22114Z   24037.49065315 -.00000191  00000-0  61008-5 0  9992,2 53841  53.2171 115.8945 0001471 106.5559 253.5595 15.08843914 77369,6917.868,95.437,540.751,538.716,0.0
53841.0,STARLINK-4750,PAYLOAD,2024-02-07 11:37:19,15.08851572,0.0001577,53.2174,111.4378,90.8982,269.2191,-5.5758e-05,-1.176e-05,0.0,0 STARLINK-4750,1 53841U 22114Z   24038.48425170 -.00001176  00000-0 -55758-4 0  9990,2 53841  53.2174 111.4378 0001577  90.8982 269.2191 15.08851572 78058,6917.845,95.437,540.801,538.619,0.0
